OBJECT_NAME,OBJECT_ID,EPOCH,MEAN_MOTION,ECCENTRICITY,INCLINATION,RA_OF_ASC_NODE,ARG_OF_PERICENTER,MEAN_ANOMALY,EPHEMERIS_TYPE,CLASSIFICATION_TYPE,NORAD_CAT_ID,ELEMENT_SET_NO,REV_AT_EPOCH,BSTAR,MEAN_MOTION_DOT,MEAN_MOTION_DDOT
ASTRA 3B,2010-021A,2026-06-14T02:57:06.895008,1.00269498,.000417,1.4622,83.5912,2.0265,244.5841,0,U,36581,999,5883,0,.145E-5,0
COMSATBW-2,2010-021B,2026-06-14T04:36:55.295424,1.00271429,.0002504,0.0380,59.3563,39.6275,245.9260,0,U,36582,999,5892,0,.97E-6,0
BEIDOU-2 G3,2010-024A,2026-06-13T23:04:48.013248,1.00271447,.0007815,4.5069,61.5280,351.9281,274.7175,0,U,36590,999,5873,0,-.13E-5,0
BADR-5,2010-025A,2026-06-14T02:59:06.704160,1.00268290,.0003332,0.0783,107.4137,86.7305,143.5293,0,U,36592,999,5318,0,.162E-5,0
COMS 1,2010-032A,2026-06-13T20:36:26.895168,0.99162789,.00114466,4.7961,75.3929,11.6277,210.9948,0,U,36744,999,5105,0,.3E-7,0
ARABSAT-5A,2010-032B,2026-06-14T02:59:06.704160,1.00272567,.0005711,0.0845,58.0282,44.5684,235.0843,0,U,36745,999,5861,0,.162E-5,0
ECHOSTAR 15,2010-034A,2026-06-14T03:36:38.531808,1.00272078,.0001569,0.0295,57.8477,33.6711,106.2906,0,U,36792,999,5829,0,.8E-7,0
BEIDOU-2 IGSO-1,2010-036A,2026-06-13T22:13:09.032736,1.00272866,.0059243,54.3020,162.9897,225.1130,315.0800,0,U,36828,999,5806,0,-.47E-6,0
NILESAT 201,2010-037A,2026-06-14T04:31:10.846272,1.00271816,.0004381,0.0469,133.3747,340.0597,209.8722,0,U,36830,999,5834,0,-.49E-6,0
RASCOM-QAF 1R,2010-037B,2026-06-14T04:33:55.580832,1.00272061,.0006784,0.0155,59.1631,19.7712,254.9321,0,U,36831,999,5827,0,.27E-6,0
AEHF-1 (USA 214),2010-039A,2026-06-13T22:02:08.752704,1.00272858,.0003815,8.2110,68.0920,7.2371,187.3593,0,U,36868,999,5362,0,.15E-5,0
XM-5,2010-053A,2026-06-14T00:34:53.604192,1.00271588,.0002962,0.0636,273.2510,287.7415,314.8679,0,U,37185,999,5745,0,-.14E-6,0
BSAT-3B,2010-056B,2026-06-14T00:00:38.613024,1.00270863,.0001504,0.0693,245.7317,301.7159,184.8791,0,U,37207,999,5206,0,-.341E-5,0
BEIDOU-2 G4,2010-057A,2026-06-14T03:35:47.419296,1.00270921,.0005217,3.6380,68.9638,197.1869,210.2587,0,U,37210,999,5726,0,-.106E-5,0
SKYTERRA 1,2010-061A,2026-06-14T03:20:38.837760,1.00271215,.0002262,5.1185,50.8588,6.4713,153.9312,0,U,37218,999,5716,0,-.113E-5,0
HYLAS 1,2010-065A,2026-06-14T00:01:36.895008,1.00271089,.0000872,5.6351,73.0598,313.2367,250.2102,0,U,37237,999,685,0,.94E-6,0
INTELSAT 17 (IS-17),2010-065B,2026-06-14T04:57:21.688128,1.00271193,.0002564,0.0069,73.0495,18.3331,311.4608,0,U,37238,999,5321,0,.7E-7,0
BEIDOU-2 IGSO-2,2010-068A,2026-06-13T17:29:24.535680,1.00284188,.00557913,47.5542,271.8769,212.4593,147.8406,0,U,37256,999,5676,0,-.22E-5,0
EUTELSAT KA-SAT 9A,2010-069A,2026-06-13T16:37:01.358112,1.00270867,.0003761,0.0608,9.9609,122.6141,27.6966,0,U,37258,999,4397,0,.72E-6,0
HISPASAT 30W-5,2010-070A,2026-06-14T04:24:33.979104,1.00272516,.0005048,0.0486,132.6314,329.7831,196.2091,0,U,37264,999,5315,0,-.207E-5,0
KOREASAT 6,2010-070B,2026-06-13T20:45:27.530208,1.00270121,.0002008,0.0264,7.8293,85.9403,279.6516,0,U,37265,999,5673,0,0,0
BEIDOU-2 IGSO-3,2011-013A,2026-06-10T17:11:36.843360,1.00268972,.00343535,62.3981,40.2143,184.2630,40.3873,0,U,37384,999,5559,0,-.195E-5,0
INTELSAT 28 (IS-28),2011-016A,2026-06-14T04:24:04.026816,1.00270375,.0003588,1.7983,82.6573,5.2168,208.9213,0,U,37392,999,5325,0,-.218E-5,0
YAHSAT 1A,2011-016B,2026-06-13T21:31:21.271008,1.00272787,.0002637,0.0214,358.5219,94.4445,184.5658,0,U,37393,999,4237,0,0,0
SBIRS GEO-1 (USA 230),2011-019A,2026-06-13T22:26:06.197280,1.00271862,.000205,4.5291,53.1307,23.5240,213.9092,0,U,37481,999,5536,0,.106E-5,0
TELSTAR 14R,2011-021A,2026-06-14T04:33:38.889216,1.00269829,.0002158,0.0177,4.9263,51.8474,211.1254,0,U,37602,999,5580,0,-.271E-5,0
GSAT-8,2011-022A,2026-06-14T03:06:13.521024,1.00272445,.0002363,2.1231,81.8584,203.5812,78.6254,0,U,37605,999,5318,0,.92E-6,0
ST-2,2011-022B,2026-06-14T01:32:50.602848,1.00271346,.0001519,0.0231,359.6978,93.0215,280.8627,0,U,37606,999,5524,0,0,0
ZHONGXING-10,2011-026A,2026-06-14T01:32:13.163136,1.00268772,.0003271,1.0374,84.2536,3.6698,282.9969,0,U,37677,999,5496,0,-.179E-5,0
SES-3,2011-035A,2026-06-13T22:55:44.844960,1.00272820,.0002258,1.3183,83.1182,353.2759,66.8104,0,U,37748,999,5456,0,-.93E-6,0
KAZSAT-2,2011-035B,2026-06-14T01:32:28.137984,1.00272303,.0001092,0.0305,245.4722,274.4436,212.0828,0,U,37749,999,5336,0,-.189E-5,0
BEIDOU-2 IGSO-4,2011-038A,2026-06-13T23:16:16.395744,1.00285286,.0159387,54.5997,165.7018,231.3732,307.5435,0,U,37763,999,5461,0,.62E-6,0
