ASTRA 3B                
1 36581U 10021A   26165.12299647  .00000145  00000+0  00000+0 0  9995
2 36581   1.4622  83.5912 0004170   2.0265 244.5841  1.00269498 58836
COMSATBW-2              
1 36582U 10021B   26165.19230666  .00000097  00000+0  00000+0 0  9995
2 36582   0.0380  59.3563 0002504  39.6275 245.9260  1.00271429 58929
BEIDOU-2 G3             
1 36590U 10024A   26164.96166682 -.00000130  00000+0  00000+0 0  9996
2 36590   4.5069  61.5280 0007815 351.9281 274.7175  1.00271447 58733
BADR-5                  
1 36592U 10025A   26165.12438315  .00000162  00000+0  00000+0 0  9997
2 36592   0.0783 107.4137 0003332  86.7305 143.5293  1.00268290 53180
COMS 1                  
1 36744U 10032A   26164.85864462  .00000003  00000+0  00000+0 0  9993
2 36744   4.7961  75.3929 0011446  11.6277 210.9948  0.99162789 51053
ARABSAT-5A              
1 36745U 10032B   26165.12438315  .00000162  00000+0  00000+0 0  9995
2 36745   0.0845  58.0282 0005711  44.5684 235.0843  1.00272567 58619
ECHOSTAR 15             
1 36792U 10034A   26165.15044597  .00000008  00000+0  00000+0 0  9996
2 36792   0.0295  57.8477 0001569  33.6711 106.2906  1.00272078 58290
BEIDOU-2 IGSO-1         
1 36828U 10036A   26164.92579899 -.00000047  00000+0  00000+0 0  9994
2 36828  54.3020 162.9897 0059243 225.1130 315.0800  1.00272866 58060
NILESAT 201             
1 36830U 10037A   26165.18831998 -.00000049  00000+0  00000+0 0  9990
2 36830   0.0469 133.3747 0004381 340.0597 209.8722  1.00271816 58349
RASCOM-QAF 1R           
1 36831U 10037B   26165.19022663  .00000027  00000+0  00000+0 0  9998
2 36831   0.0155  59.1631 0006784  19.7712 254.9321  1.00272061 58278
AEHF-1 (USA 214)        
1 36868U 10039A   26164.91815686  .00000150  00000+0  00000+0 0  9991
2 36868   8.2110  68.0920 0003815   7.2371 187.3593  1.00272858 53622
XM-5                    
1 37185U 10053A   26165.02423153 -.00000014  00000+0  00000+0 0  9997
2 37185   0.0636 273.2510 0002962 287.7415 314.8679  1.00271588 57455
BSAT-3B                 
1 37207U 10056B   26165.00044691 -.00000341  00000+0  00000+0 0  9992
2 37207   0.0693 245.7317 0001504 301.7159 184.8791  1.00270863 52062
BEIDOU-2 G4             
1 37210U 10057A   26165.14985439 -.00000106  00000+0  00000+0 0  9995
2 37210   3.6380  68.9638 0005217 197.1869 210.2587  1.00270921 57268
SKYTERRA 1              
1 37218U 10061A   26165.13933840 -.00000113  00000+0  00000+0 0  9994
2 37218   5.1185  50.8588 0002262   6.4713 153.9312  1.00271215 57162
HYLAS 1                 
1 37237U 10065A   26165.00112147  .00000094  00000+0  00000+0 0  9991
2 37237   5.6351  73.0598 0000872 313.2367 250.2102  1.00271089  6857
INTELSAT 17 (IS-17)     
1 37238U 10065B   26165.20650102  .00000007  00000+0  00000+0 0  9996
2 37238   0.0069  73.0495 0002564  18.3331 311.4608  1.00271193 53212
BEIDOU-2 IGSO-2         
1 37256U 10068A   26164.72875620 -.00000220  00000+0  00000+0 0  9997
2 37256  47.5542 271.8769 0055791 212.4593 147.8406  1.00284188 56761
EUTELSAT KA-SAT 9A      
1 37258U 10069A   26164.69237683  .00000072  00000+0  00000+0 0  9991
2 37258   0.0608   9.9609 0003761 122.6141  27.6966  1.00270867 43978
HISPASAT 30W-5          
1 37264U 10070A   26165.18372661 -.00000207  00000+0  00000+0 0  9992
2 37264   0.0486 132.6314 0005048 329.7831 196.2091  1.00272516 53158
KOREASAT 6              
1 37265U 10070B   26164.86490197  .00000000  00000+0  00000+0 0  9992
2 37265   0.0264   7.8293 0002008  85.9403 279.6516  1.00270121 56736
BEIDOU-2 IGSO-3         
1 37384U 11013A   26161.71639865 -.00000195  00000+0  00000+0 0  9996
2 37384  62.3981  40.2143 0034353 184.2630  40.3873  1.00268972 55596
INTELSAT 28 (IS-28)     
1 37392U 11016A   26165.18337994 -.00000218  00000+0  00000+0 0  9997
2 37392   1.7983  82.6573 0003588   5.2168 208.9213  1.00270375 53256
YAHSAT 1A               
1 37393U 11016B   26164.89677397  .00000000  00000+0  00000+0 0  9997
2 37393   0.0214 358.5219 0002637  94.4445 184.5658  1.00272787 42372
SBIRS GEO-1 (USA 230)   
1 37481U 11019A   26164.93479395  .00000106  00000+0  00000+0 0  9998
2 37481   4.5291  53.1307 0002050  23.5240 213.9092  1.00271862 55360
TELSTAR 14R             
1 37602U 11021A   26165.19003344 -.00000271  00000+0  00000+0 0  9996
2 37602   0.0177   4.9263 0002158  51.8474 211.1254  1.00269829 55805
GSAT-8                  
1 37605U 11022A   26165.12932316  .00000092  00000+0  00000+0 0  9993
2 37605   2.1231  81.8584 0002363 203.5812  78.6254  1.00272445 53185
ST-2                    
1 37606U 11022B   26165.06447457  .00000000  00000+0  00000+0 0  9993
2 37606   0.0231 359.6978 0001519  93.0215 280.8627  1.00271346 55246
ZHONGXING-10            
1 37677U 11026A   26165.06404124 -.00000179  00000+0  00000+0 0  9997
2 37677   1.0374  84.2536 0003271   3.6698 282.9969  1.00268772 54962
SES-3                   
1 37748U 11035A   26164.95538015 -.00000093  00000+0  00000+0 0  9995
2 37748   1.3183  83.1182 0002258 353.2759  66.8104  1.00272820 54568
KAZSAT-2                
1 37749U 11035B   26165.06421456 -.00000189  00000+0  00000+0 0  9995
2 37749   0.0305 245.4722 0001092 274.4436 212.0828  1.00272303 53366
BEIDOU-2 IGSO-4         
1 37763U 11038A   26164.96963421  .00000062  00000+0  00000+0 0  9994
2 37763  54.5997 165.7018 0159387 231.3732 307.5435  1.00285286 54614
